{"type": "FeatureCollection", "features": [ {"type": "Feature", "properties": {"norad_id": 45358, "name": "COSMOS 2545 (760)", "group": "glo-ops", "lat": 58.38837781567984, "lon": 9.399796394238184, "alt_km": 19152.186071700326, "timestamp": "2025-12-26T03:50:12.354613+00:00", "meta": {"OBJECT_NAME": "COSMOS 2545 (760)", "OBJECT_ID": "2020-018A", "EPOCH": "2025-12-25T03:05:50.090208", "MEAN_MOTION": 2.13102661, "ECCENTRICITY": 0.00112965, "INCLINATION": 64.4622, "RA_OF_ASC_NODE": 318.5356, "ARG_OF_PERICENTER": 250.6844, "MEAN_ANOMALY": 109.1968, "EPHEMERIS_TYPE": 0, "CLASSIFICATION_TYPE": "U", "NORAD_CAT_ID": 45358, "ELEMENT_SET_NO": 999, "REV_AT_EPOCH": 4495, "BSTAR": 0, "MEAN_MOTION_DOT": -3.4e-07, "MEAN_MOTION_DDOT": 0}, "tle": {"line1": "1 45358U 20018A   25359.12905197 -.00000034  00000+0  00000+0 0  9990", "line2": "2 45358  64.4622 318.5356 0011296 250.6844 109.1968  2.13102661 44958"}}, "geometry": {"type": "Point", "coordinates": [9.399796394238184, 58.38837781567984]}}, {"type": "Feature", "properties": {"norad_id": 46805, "name": "COSMOS 2547 (705K)", "group": "glo-ops", "lat": -60.00440906058066, "lon": 142.8089895842475, "alt_km": 19128.353216801774, "timestamp": "2025-12-26T03:50:12.354631+00:00", "meta": {"OBJECT_NAME": "COSMOS 2547 (705K)", "OBJECT_ID": "2020-075A", "EPOCH": "2025-12-24T20:21:03.584160", "MEAN_MOTION": 2.13100193, "ECCENTRICITY": 0.00061113, "INCLINATION": 64.5968, "RA_OF_ASC_NODE": 198.292, "ARG_OF_PERICENTER": 227.5617, "MEAN_ANOMALY": 132.4433, "EPHEMERIS_TYPE": 0, "CLASSIFICATION_TYPE": "U", "NORAD_CAT_ID": 46805, "ELEMENT_SET_NO": 999, "REV_AT_EPOCH": 4019, "BSTAR": 0, "MEAN_MOTION_DOT": 1.02e-06, "MEAN_MOTION_DDOT": 0}, "tle": {"line1": "1 46805U 20075A   25358.84795815  .00000102  00000+0  00000+0 0  9998", "line2": "2 46805  64.5968 198.2920 0006111 227.5617 132.4433  2.13100193 40197"}}, "geometry": {"type": "Point", "coordinates": [142.8089895842475, -60.00440906058066]}}, {"type": "Feature", "properties": {"norad_id": 52984, "name": "COSMOS 2557 (706K)", "group": "glo-ops", "lat": 18.445512838274606, "lon": 131.3719376445575, "alt_km": 19144.761509951313, "timestamp": "2025-12-26T03:50:12.354642+00:00", "meta": {"OBJECT_NAME": "COSMOS 2557 (706K)", "OBJECT_ID": "2022-075A", "EPOCH": "2025-12-25T00:18:58.965408", "MEAN_MOTION": 2.13102032, "ECCENTRICITY": 0.0013542, "INCLINATION": 64.4029, "RA_OF_ASC_NODE": 320.6204, "ARG_OF_PERICENTER": 278.4841, "MEAN_ANOMALY": 81.3651, "EPHEMERIS_TYPE": 0, "CLASSIFICATION_TYPE": "U", "NORAD_CAT_ID": 52984, "ELEMENT_SET_NO": 999, "REV_AT_EPOCH": 2700, "BSTAR": 0, "MEAN_MOTION_DOT": -3.4e-07, "MEAN_MOTION_DDOT": 0}, "tle": {"line1": "1 52984U 22075A   25359.01318247 -.00000034  00000+0  00000+0 0  9990", "line2": "2 52984  64.4029 320.6204 0013542 278.4841  81.3651  2.13102032 27008"}}, "geometry": {"type": "Point", "coordinates": [131.3719376445575, 18.445512838274606]}}, {"type": "Feature", "properties": {"norad_id": 54031, "name": "COSMOS 2559 (707K)", "group": "glo-ops", "lat": -52.41114927520327, "lon": -77.88588901699737, "alt_km": 19144.36910734934, "timestamp": "2025-12-26T03:50:12.354653+00:00", "meta": {"OBJECT_NAME": "COSMOS 2559 (707K)", "OBJECT_ID": "2022-130A", "EPOCH": "2025-12-25T07:14:23.309088", "MEAN_MOTION": 2.13101233, "ECCENTRICITY": 0.0011493, "INCLINATION": 64.3751, "RA_OF_ASC_NODE": 320.6993, "ARG_OF_PERICENTER": 191.6749, "MEAN_ANOMALY": 168.3019, "EPHEMERIS_TYPE": 0, "CLASSIFICATION_TYPE": "U", "NORAD_CAT_ID": 54031, "ELEMENT_SET_NO": 999, "REV_AT_EPOCH": 2498, "BSTAR": 0, "MEAN_MOTION_DOT": -3.5e-07, "MEAN_MOTION_DDOT": 0}, "tle": {"line1": "1 54031U 22130A   25359.30165867 -.00000035  00000+0  00000+0 0  9998", "line2": "2 54031  64.3751 320.6993 0011493 191.6749 168.3019  2.13101233 24985"}}, "geometry": {"type": "Point", "coordinates": [-77.88588901699737, -52.41114927520327]}}, {"type": "Feature", "properties": {"norad_id": 54377, "name": "COSMOS 2564 (761)", "group": "glo-ops", "lat": 49.99339698460814, "lon": -127.2932847123386, "alt_km": 19142.21507095955, "timestamp": "2025-12-26T03:50:12.354664+00:00", "meta": {"OBJECT_NAME": "COSMOS 2564 (761)", "OBJECT_ID": "2022-161A", "EPOCH": "2025-12-25T03:29:54.558240", "MEAN_MOTION": 2.13102011, "ECCENTRICITY": 0.0008544, "INCLINATION": 64.739, "RA_OF_ASC_NODE": 198.4867, "ARG_OF_PERICENTER": 203.5994, "MEAN_ANOMALY": 156.4178, "EPHEMERIS_TYPE": 0, "CLASSIFICATION_TYPE": "U", "NORAD_CAT_ID": 54377, "ELEMENT_SET_NO": 999, "REV_AT_EPOCH": 2392, "BSTAR": 0, "MEAN_MOTION_DOT": 1.03e-06, "MEAN_MOTION_DDOT": 0}, "tle": {"line1": "1 54377U 22161A   25359.14577035  .00000103  00000+0  00000+0 0  9996", "line2": "2 54377  64.7390 198.4867 0008544 203.5994 156.4178  2.13102011 23922"}}, "geometry": {"type": "Point", "coordinates": [-127.2932847123386, 49.99339698460814]}}, {"type": "Feature", "properties": {"norad_id": 57517, "name": "COSMOS 2569 (703K)", "group": "glo-ops", "lat": 42.22233523200828, "lon": 103.24039102182836, "alt_km": 19139.115214051515, "timestamp": "2025-12-26T03:50:12.354675+00:00", "meta": {"OBJECT_NAME": "COSMOS 2569 (703K)", "OBJECT_ID": "2023-114A", "EPOCH": "2025-12-25T03:49:07.556736", "MEAN_MOTION": 2.13103965, "ECCENTRICITY": 0.00109757, "INCLINATION": 65.2004, "RA_OF_ASC_NODE": 78.4938, "ARG_OF_PERICENTER": 287.1624, "MEAN_ANOMALY": 72.767, "EPHEMERIS_TYPE": 0, "CLASSIFICATION_TYPE": "U", "NORAD_CAT_ID": 57517, "ELEMENT_SET_NO": 999, "REV_AT_EPOCH": 1855, "BSTAR": 0, "MEAN_MOTION_DOT": -1e-08, "MEAN_MOTION_DDOT": 0}, "tle": {"line1": "1 57517U 23114A   25359.15911524 -.00000001  00000+0  00000+0 0  9998", "line2": "2 57517  65.2004  78.4938 0010975 287.1624  72.7670  2.13103965 18553"}}, "geometry": {"type": "Point", "coordinates": [103.24039102182836, 42.22233523200828]}}, {"type": "Feature", "properties": {"norad_id": 63130, "name": "COSMOS 2584 (704K)", "group": "glo-ops", "lat": 40.178199551087694, "lon": -124.48746331016444, "alt_km": 19123.81907080414, "timestamp": "2025-12-26T03:50:12.354686+00:00", "meta": {"OBJECT_NAME": "COSMOS 2584 (704K)", "OBJECT_ID": "2025-042A", "EPOCH": "2025-12-24T02:34:25.549824", "MEAN_MOTION": 2.13102981, "ECCENTRICITY": 0.00077651, "INCLINATION": 64.9819, "RA_OF_ASC_NODE": 78.7588, "ARG_OF_PERICENTER": 220.6893, "MEAN_ANOMALY": 139.3012, "EPHEMERIS_TYPE": 0, "CLASSIFICATION_TYPE": "U", "NORAD_CAT_ID": 63130, "ELEMENT_SET_NO": 999, "REV_AT_EPOCH": 631, "BSTAR": 0, "MEAN_MOTION_DOT": 1e-08, "MEAN_MOTION_DDOT": 0}, "tle": {"line1": "1 63130U 25042A   25358.10724016  .00000001  00000+0  00000+0 0  9999", "line2": "2 63130  64.9819  78.7588 0007765 220.6893 139.3012  2.13102981  6316"}}, "geometry": {"type": "Point", "coordinates": [-124.48746331016444, 40.178199551087694]}}, {"type": "Feature", "properties": {"norad_id": 65590, "name": "COSMOS 2596 (708K)", "group": "glo-ops", "lat": -59.83872089304461, "lon": -164.70877682523187, "alt_km": 19115.529342294125, "timestamp": "2025-12-26T03:50:12.354697+00:00", "meta": {"OBJECT_NAME": "COSMOS 2596 (708K)", "OBJECT_ID": "2025-206B", "EPOCH": "2025-12-24T10:04:00.075648", "MEAN_MOTION": 2.13100293, "ECCENTRICITY": 0.00140917, "INCLINATION": 64.738, "RA_OF_ASC_NODE": 321.0695, "ARG_OF_PERICENTER": 307.5813, "MEAN_ANOMALY": 50.2886, "EPHEMERIS_TYPE": 0, "CLASSIFICATION_TYPE": "U", "NORAD_CAT_ID": 65590, "ELEMENT_SET_NO": 999, "REV_AT_EPOCH": 218, "BSTAR": 0, "MEAN_MOTION_DOT": -3.5e-07, "MEAN_MOTION_DDOT": 0}, "tle": {"line1": "1 65590U 25206B   25358.41944532 -.00000035  00000+0  00000+0 0  9992", "line2": "2 65590  64.7380 321.0695 0014091 307.5813  50.2886  2.13100293  2184"}}, "geometry": {"type": "Point", "coordinates": [-164.70877682523187, -59.83872089304461]}}]}